GLOBALSTAR M045 [-]     
1 25676U 99019A   24052.75459552 -.00000066  00000+0  24363-3 0  9992
2 25676  51.9941 237.4183 0001226  62.3213 310.9487 12.27032139134294
GLOBALSTAR M019 [-]     
1 25677U 99019B   24052.97305788 -.00000188  00000+0 -10187-2 0  9992
2 25677  51.9906 333.3095 0001574  64.2163  17.1151 12.13851672126702
GLOBALSTAR M044 [-]     
1 25678U 99019C   24052.92004656 -.00000069  00000+0  19774-3 0  9997
2 25678  51.9935 224.6069 0006315 183.7964 331.2636 11.90229375114014
GLOBALSTAR M042 [-]     
1 25679U 99019D   24052.82082219 -.00000063  00000+0  27366-3 0  9998
2 25679  52.0040 329.8341 0003545  32.2817  78.8029 12.22056026126405
GLOBALSTAR M025 [-]     
1 25770U 99031A   24052.64690078 -.00000079  00000+0 -35525-3 0  9996
2 25770  51.9792 194.7859 0002111  82.7225 290.3472 11.22549594 85293
GLOBALSTAR M049 [-]     
1 25771U 99031B   24052.67039519 -.00000011  00000+0  18922-2 0  9993
2 25771  51.9845 205.2961 0002155 285.1598  74.8960 11.12103829 63856
GLOBALSTAR M047 [-]     
1 25772U 99031C   24052.78261913 -.00000031  00000+0  10655-2 0  9998
2 25772  51.9800 248.0052 0016815 152.7493 207.4198 11.31918829416590
GLOBALSTAR M052 [-]     
1 25773U 99031D   24052.93065654 -.00000007  00000+0  19647-2 0  9993
2 25773  51.9897 320.1525 0003166  88.1175 354.0518 11.15048530424823
